NORAD_CAT_ID,OBJECT_NAME,OBJECT_TYPE,EPOCH,MEAN_MOTION,ECCENTRICITY,INCLINATION,RA_OF_ASC_NODE,ARG_OF_PERICENTER,MEAN_ANOMALY,BSTAR,MEAN_MOTION_DOT,MEAN_MOTION_DDOT,TLE_LINE0,TLE_LINE1,TLE_LINE2,SEMIMAJOR_AXIS,PERIOD,APOGEE,PERIGEE,DECAYED
51887.0,STARLINK-3551,PAYLOAD,2023-09-01 02:06:51,15.08838577,0.0001252,53.2166,171.8633,88.5755,271.5381,8.4168e-05,1.052e-05,0.0,0 STARLINK-3551,1 51887U 22022AM  23244.08809331  .00001052  00000-0  84168-4 0  9993,2 51887  53.2166 171.8633 0001252  88.5755 271.5381 15.08838577 84260,6917.885,95.438,540.616,538.884,0.0
51887.0,STARLINK-3551,PAYLOAD,2023-09-01 11:39:09,15.08846808,0.000121,53.2168,170.0791,86.2641,273.849,5.6414e-05,6.1e-06,0.0,0 STARLINK-3551,1 51887U 22022AM  23244.48552866  .00000610  00000-0  56414-4 0  9997,2 51887  53.2168 170.0791 0001210  86.2641 273.8490 15.08846808 84320,6917.86,95.437,540.562,538.888,0.0
51887.0,STARLINK-3551,PAYLOAD,2023-09-01 19:36:05,15.088442,0.0001216,53.2165,168.5925,90.7079,269.4052,0.00014309,1.99e-05,0.0,0 STARLINK-3551,1 51887U 22022AM  23244.81672938  .00001990  00000-0  14309-3 0  9995,2 51887  53.2165 168.5925 0001216  90.7079 269.4052 15.08844200 84373,6917.868,95.437,540.574,538.891,0.0
51887.0,STARLINK-3551,PAYLOAD,2023-09-01 22:46:51,15.08847777,0.0001313,53.2159,167.9979,87.7512,272.363,0.00020362,2.955e-05,0.0,0 STARLINK-3551,1 51887U 22022AM  23244.94920860  .00002955  00000-0  20362-3 0  9997,2 51887  53.2159 167.9979 0001313  87.7512 272.3630 15.08847777 84393,6917.857,95.437,540.63,538.813,0.0
51887.0,STARLINK-3551,PAYLOAD,2023-09-02 14:40:43,15.08842574,0.0001374,53.2158,165.0241,85.7468,274.3681,0.00012345,1.677e-05,0.0,0 STARLINK-3551,1 51887U 22022AM  23245.61160987  .00001677  00000-0  12345-3 0  9990,2 51887  53.2158 165.0241 0001374  85.7468 274.3681 15.08842574 84497,6917.873,95.437,540.688,538.787,0.0
51887.0,STARLINK-3551,PAYLOAD,2023-09-03 01:48:25,15.08835511,0.0001342,53.2159,162.9427,82.1384,277.976,5.0601e-06,-2.07e-06,0.0,0 STARLINK-3551,1 51887U 22022AM  23246.07529368 -.00000207  00000-0  50601-5 0  9991,2 51887  53.2159 162.9427 0001342  82.1384 277.9760 15.08835511 84561,6917.894,95.438,540.687,538.831,0.0
51887.0,STARLINK-3551,PAYLOAD,2023-09-03 12:56:07,15.08834538,0.0001539,53.2156,160.8617,90.7496,269.3673,-2.7939e-05,-7.33e-06,0.0,0 STARLINK-3551,1 51887U 22022AM  23246.53897594 -.00000733  00000-0 -27939-4 0  9993,2 51887  53.2156 160.8617 0001539  90.7496 269.3673 15.08834538 84637,6917.897,95.438,540.827,538.697,0.0
51887.0,STARLINK-3551,PAYLOAD,2023-09-04 03:14:35,15.08840294,0.00014,53.2166,158.1853,90.5666,269.5487,1.2338e-06,-2.68e-06,0.0,0 STARLINK-3551,1 51887U 22022AM  23247.13513864 -.00000268  00000-0  12338-5 0  9995,2 51887  53.2166 158.1853 0001400  90.5666 269.5487 15.08840294 84725,6917.879,95.438,540.713,538.776,0.0
51887.0,STARLINK-3551,PAYLOAD,2023-09-04 12:46:54,15.08833114,0.0001488,53.216,156.4012,89.0871,271.0292,0.00015733,2.216e-05,0.0,0 STARLINK-3551,1 51887U 22022AM  23247.53258020  .00002216  00000-0  15733-3 0  9993,2 51887  53.2160 156.4012 0001488  89.0871 271.0292 15.08833114 84785,6917.901,95.438,540.796,538.737,0.0
51887.0,STARLINK-3551,PAYLOAD,2023-09-05 12:37:41,15.08846243,0.0001326,53.216,151.9405,97.5649,262.5494,5.9125e-05,6.53e-06,0.0,0 STARLINK-3551,1 51887U 22022AM  23248.52617505  .00000653  00000-0  59125-4 0  9997,2 51887  53.2160 151.9405 0001326  97.5649 262.5494 15.08846243 84932,6917.861,95.437,540.644,538.809,0.0
51887.0,STARLINK-3551,PAYLOAD,2023-09-06 12:28:28,15.08846895,0.0001429,53.2157,147.4797,98.6534,261.462,0.00018117,2.597e-05,0.0,0 STARLINK-3551,1 51887U 22022AM  23249.51977626  .00002597  00000-0  18117-3 0  9994,2 51887  53.2157 147.4797 0001429  98.6534 261.4620 15.08846895 85080,6917.859,95.437,540.713,538.736,0.0
51887.0,STARLINK-3551,PAYLOAD,2023-09-06 20:25:24,15.08844074,0.0001395,53.2157,145.993,96.8493,263.2658,0.00011993,1.621e-05,0.0,0 STARLINK-3551,1 51887U 22022AM  23249.85097746  .00001621  00000-0  11993-3 0  9999,2 51887  53.2157 145.9930 0001395  96.8493 263.2658 15.08844074 85132,6917.868,95.437,540.698,538.768,0.0
51887.0,STARLINK-3551,PAYLOAD,2023-09-06 23:36:10,15.08843991,0.0001384,53.2158,145.3986,93.017,267.098,0.00010911,1.449e-05,0.0,0 STARLINK-3551,1 51887U 22022AM  23249.98345744  .00001449  00000-0  10911-3 0  9994,2 51887  53.2158 145.3986 0001384  93.0170 267.0980 15.08843991 85156,6917.868,95.437,540.691,538.776,0.0
51887.0,STARLINK-3551,PAYLOAD,2023-09-07 02:46:56,15.0885119,0.0001415,53.2157,144.8036,87.2319,272.8835,0.00015913,2.246e-05,0.0,0 STARLINK-3551,1 51887U 22022AM  23250.11593348  .00002246  00000-0  15913-3 0  9999,2 51887  53.2157 144.8036 0001415  87.2319 272.8835 15.08851190 85175,6917.846,95.437,540.69,538.732,0.0
51887.0,STARLINK-3551,PAYLOAD,2023-09-07 12:19:15,15.08844409,0.0001725,53.2143,143.0179,96.066,264.0528,4.659e-05,4.54e-06,0.0,0 STARLINK-3551,1 51887U 22022AM  23250.51337580  .00000454  00000-0  46590-4 0  9992,2 51887  53.2143 143.0179 0001725  96.0660 264.0528 15.08844409 85234,6917.867,95.437,540.925,538.539,0.0
51887.0,STARLINK-3551,PAYLOAD,2023-09-07 20:16:11,15.08838907,0.0001577,53.2152,141.5317,97.4993,262.6178,4.0628e-05,3.59e-06,0.0,0 STARLINK-3551,1 51887U 22022AM  23250.84457901  .00000359  00000-0  40628-4 0  9998,2 51887  53.2152 141.5317 0001577  97.4993 262.6178 15.08838907 85286,6917.884,95.438,540.84,538.658,0.0
51887.0,STARLINK-3551,PAYLOAD,2023-09-08 12:10:02,15.08839978,0.0001793,53.2155,138.5605,79.2879,280.8315,0.00012254,1.663e-05,0.0,0 STARLINK-3551,1 51887U 22022AM  23251.50697891  .00001663  00000-0  12254-3 0  9998,2 51887  53.2155 138.5605 0001793  79.2879 280.8315 15.08839978 85381,6917.88,95.438,540.986,538.505,0.0
51887.0,STARLINK-3551,PAYLOAD,2023-09-08 21:42:21,15.08837412,0.0001453,53.2164,136.7729,115.2154,244.8989,6.5259e-05,7.51e-06,0.0,0 STARLINK-3551,1 51887U 22022AM  23251.90442008  .00000751  00000-0  65259-4 0  9991,2 51887  53.2164 136.7729 0001453 115.2154 244.8989 15.08837412 85443,6917.888,95.438,540.758,538.748,0.0
51887.0,STARLINK-3551,PAYLOAD,2023-09-08 23:17:44,15.08840583,0.0001239,53.2168,136.4776,92.7261,267.3873,8.9811e-05,1.142e-05,0.0,0 STARLINK-3551,1 51887U 22022AM  23251.97065882  .00001142  00000-0  89811-4 0  9994,2 51887  53.2168 136.4776 0001239  92.7261 267.3873 15.08840583 85452,6917.879,95.438,540.601,538.886,0.0
51887.0,STARLINK-3551,PAYLOAD,2023-09-09 08:50:02,15.08861515,0.000119,53.2167,134.6934,97.056,263.0568,-0.00026723,-4.541e-05,0.0,0 STARLINK-3551,1 51887U 22022AM  23252.36808989 -.00004541  00000-0 -26723-3 0  9991,2 51887  53.2167 134.6934 0001190  97.0560 263.0568 15.08861515 85512,6917.815,95.436,540.503,538.856,0.0
51887.0,STARLINK-3551,PAYLOAD,2023-09-09 16:46:59,15.08833751,0.0001236,53.2166,133.2068,95.0104,265.1029,5.7954e-05,6.34e-06,0.0,0 STARLINK-3551,1 51887U 22022AM  23252.69930438  .00000634  00000-0  57954-4 0  9990,2 51887  53.2166 133.2068 0001236  95.0104 265.1029 15.08833751 85568,6917.899,95.438,540.62,538.909,0.0
51887.0,STARLINK-3551,PAYLOAD,2023-09-09 23:08:32,15.08841113,0.0001233,53.2166,132.0178,93.2554,266.8579,0.0001168,1.572e-05,0.0,0 STARLINK-3551,1 51887U 22022AM  23252.96425926  .00001572  00000-0  11680-3 0  9998,2 51887  53.2166 132.0178 0001233  93.2554 266.8579 15.08841113 85607,6917.877,95.437,540.595,538.889,0.0
51887.0,STARLINK-3551,PAYLOAD,2023-09-10 11:51:37,15.08833701,0.0001198,53.2167,129.6392,88.6915,271.4215,9.2062e-05,1.177e-05,0.0,0 STARLINK-3551,1 51887U 22022AM  23253.49418616  .00001177  00000-0  92062-4 0  9990,2 51887  53.2167 129.6392 0001198  88.6915 271.4215 15.08833701 85688,6917.9,95.438,540.593,538.936,0.0
51887.0,STARLINK-3551,PAYLOAD,2023-09-10 19:48:33,15.08833706,0.0001175,53.2165,128.1515,89.9754,270.1373,8.8035e-05,1.113e-05,0.0,0 STARLINK-3551,1 51887U 22022AM  23253.82538774  .00001113  00000-0  88035-4 0  9990,2 51887  53.2165 128.1515 0001175  89.9754 270.1373 15.08833706 85739,6917.9,95.438,540.577,538.952,0.0
51887.0,STARLINK-3551,PAYLOAD,2023-09-11 08:31:38,15.0884152,0.0001171,53.2167,125.7729,93.6961,266.4165,8.7448e-05,1.104e-05,0.0,0 STARLINK-3551,1 51887U 22022AM  23254.35530366  .00001104  00000-0  87448-4 0  9995,2 51887  53.2167 125.7729 0001171  93.6961 266.4165 15.08841520 85818,6917.876,95.437,540.551,538.931,0.0
51887.0,STARLINK-3551,PAYLOAD,2023-09-11 13:17:47,15.08836802,0.00012,53.2167,124.8804,89.9335,270.1795,0.00013369,1.84e-05,0.0,0 STARLINK-3551,1 51887U 22022AM  23254.55402677  .00001840  00000-0  13369-3 0  9997,2 51887  53.2167 124.8804 0001200  89.9335 270.1795 15.08836802 85849,6917.89,95.438,540.585,538.925,0.0
51887.0,STARLINK-3551,PAYLOAD,2023-09-12 09:57:48,15.08845803,0.0001324,53.2154,121.0148,93.5003,266.614,8.3185e-05,1.036e-05,0.0,0 STARLINK-3551,1 51887U 22022AM  23255.41513973  .00001036  00000-0  83185-4 0  9996,2 51887  53.2154 121.0148 0001324  93.5003 266.6140 15.08845803 85974,6917.863,95.437,540.644,538.812,0.0
51887.0,STARLINK-3551,PAYLOAD,2023-09-12 21:05:30,15.08840971,0.0001609,53.2154,118.9287,135.3398,224.7724,0.00011329,1.516e-05,0.0,0 STARLINK-3551,1 51887U 22022AM  23255.87882080  .00001516  00000-0  11329-3 0  9997,2 51887  53.2154 118.9287 0001609 135.3398 224.7724 15.08840971 86044,6917.877,95.437,540.856,538.629,0.0
51887.0,STARLINK-3551,PAYLOAD,2023-09-13 09:48:34,15.08849862,0.0001151,53.2158,116.5537,94.4056,265.7068,0.00020325,2.949e-05,0.0,0 STARLINK-3551,1 51887U 22022AM  23256.40873809  .00002949  00000-0  20325-3 0  9993,2 51887  53.2158 116.5537 0001151  94.4056 265.7068 15.08849862 86121,6917.85,95.437,540.511,538.919,0.0
51887.0,STARLINK-3551,PAYLOAD,2023-09-13 20:56:16,15.08856471,0.0001162,53.2156,114.4727,86.6707,273.4418,0.00025414,3.761e-05,0.0,0 STARLINK-3551,1 51887U 22022AM  23256.87241323  .00003761  00000-0  25414-3 0  9991,2 51887  53.2156 114.4727 0001162  86.6707 273.4418 15.08856471 86191,6917.83,95.437,540.499,538.891,0.0
